ONEWEB-0553             
1 56055U 23043K   23319.91667824  .00000014  00000+0  00000+0 0  9997
2 56055  87.8163  56.7960 0000912 136.8222 303.9389 13.48845387 35582
ONEWEB-0554             
1 56056U 23043L   23319.91667824  .00000014  00000+0  00000+0 0  9998
2 56056  87.8395  56.7887 0003150  88.1325 165.5939 13.45353357 35578
ONEWEB-0555             
1 56057U 23043M   23319.91667824  .00000014  00000+0  00000+0 0  9999
2 56057  87.8261  56.7407 0004149  45.1732  45.7505 13.48226077 35572
ONEWEB-0557             
1 56058U 23043N   23319.91667824  .00000014  00000+0  00000+0 0  9990
2 56058  87.8403  56.7891 0003491  81.7664 230.1202 13.45558461 35573
ONEWEB-0558             
1 56059U 23043P   23319.37293186  .00000054  00000+0  99290-4 0  9995
2 56059  87.9250  72.0676 0001100 106.1665 253.9590 13.21824387 33427
ONEWEB-0559             
1 56060U 23043Q   23319.36191475  .00000044  00000+0  75901-4 0  9996
2 56060  87.9250  72.0708 0001334  78.8998 281.2286 13.21824859 33439
ONEWEB-0566             
1 56061U 23043R   23319.35558742  .00000055  00000+0  10105-3 0  9996
2 56061  87.9246  72.0739 0000798 105.8485 254.2737 13.21826387 33411
ONEWEB-0568             
1 56062U 23043S   23319.91667824  .00000014  00000+0  00000+0 0  9995
2 56062  87.8033  56.7573 0004701  69.8103 141.8109 13.51713824 35593
